IRIDIUM 36              
1 24967U 97056C   24287.50372787  .00001840  00000+0  61301-3 0  9993
2 24967  86.3905 276.5910 0002593  91.0972 269.0522 14.37116513416782
IRIDIUM 39              
1 25042U 97069D   24287.50779582  .00002249  00000+0  59322-3 0  9990
2 25042  86.3901 316.9116 0019949  55.0663 305.2411 14.48462630413244
IRIDIUM 38              
1 25043U 97069E   24287.54247631  .00001754  00000+0  57841-3 0  9994
2 25043  86.3981 336.9486 0002777 135.3813 224.7608 14.37610782410516
IRIDIUM 42              
1 25077U 97077A   24287.24868981  .00001703  00000+0  58133-3 0  9993
2 25077  86.3997 342.9342 0002018 110.9498 249.1914 14.35884520405756
IRIDIUM 44              
1 25078U 97077B   24287.51960739  .00001773  00000+0  56032-3 0  9991
2 25078  86.3955 325.4080 0003973 103.9141 256.2500 14.39729255408204
IRIDIUM 45              
1 25104U 97082A   24287.09218321  .00023395  00000+0  11323-2 0  9990
2 25104  86.3671 166.6653 0145270 167.8538 192.6266 15.09521632414606
IRIDIUM 24              
1 25105U 97082B   24287.32140371  .00001944  00000+0  59187-3 0  9993
2 25105  86.3983 184.8958 0011646 162.1233 198.0379 14.41566088407642
IRIDIUM 51              
1 25262U 98018A   24287.17260423  .00040024  00000+0  15192-2 0  9990
2 25262  86.3984 176.0702 0130612 104.9693 256.6051 15.18962471409276
